[{"OBJECT_NAME":"ONEWEB-0703","OBJECT_ID":"2023-068Q","EPOCH":"2025-08-13T12:43:34.841568","MEAN_MOTION":13.15546388,"ECCENTRICITY":0.0002803,"INCLINATION":87.9067,"RA_OF_ASC_NODE":320.5869,"ARG_OF_PERICENTER":82.1461,"MEAN_ANOMALY":277.9987,"EPHEMERIS_TYPE":0,"CLASSIFICATION_TYPE":"U","NORAD_CAT_ID":56724,"ELEMENT_SET_NO":999,"REV_AT_EPOCH":10880,"BSTAR":-7.4542e-5,"MEAN_MOTION_DOT":-1.5e-7,"MEAN_MOTION_DDOT":0},{"OBJECT_NAME":"ONEWEB-0721","OBJECT_ID":"2023-068R","EPOCH":"2025-08-13T13:58:38.835552","MEAN_MOTION":13.22441879,"ECCENTRICITY":0.0002022,"INCLINATION":86.6849,"RA_OF_ASC_NODE":183.5546,"ARG_OF_PERICENTER":80.9624,"MEAN_ANOMALY":279.1737,"EPHEMERIS_TYPE":0,"CLASSIFICATION_TYPE":"U","NORAD_CAT_ID":56725,"ELEMENT_SET_NO":999,"REV_AT_EPOCH":11728,"BSTAR":3.9678e-5,"MEAN_MOTION_DOT":3.1e-7,"MEAN_MOTION_DDOT":0},{"OBJECT_NAME":"ONEWEB-0015","OBJECT_ID":"2024-188A","EPOCH":"2025-08-13T14:30:36.542304","MEAN_MOTION":13.1141534,"ECCENTRICITY":0.0002145,"INCLINATION":87.8803,"RA_OF_ASC_NODE":82.4008,"ARG_OF_PERICENTER":98.9066,"MEAN_ANOMALY":261.2304,"EPHEMERIS_TYPE":0,"CLASSIFICATION_TYPE":"U","NORAD_CAT_ID":61594,"ELEMENT_SET_NO":999,"REV_AT_EPOCH":4414,"BSTAR":0.0010532,"MEAN_MOTION_DOT":3.86e-6,"MEAN_MOTION_DDOT":0},{"OBJECT_NAME":"ONEWEB-0687","OBJECT_ID":"2024-188B","EPOCH":"2025-08-13T12:53:53.164032","MEAN_MOTION":13.17648235,"ECCENTRICITY":0.0001646,"INCLINATION":87.9021,"RA_OF_ASC_NODE":67.1355,"ARG_OF_PERICENTER":107.9724,"MEAN_ANOMALY":252.1587,"EPHEMERIS_TYPE":0,"CLASSIFICATION_TYPE":"U","NORAD_CAT_ID":61595,"ELEMENT_SET_NO":999,"REV_AT_EPOCH":4538,"BSTAR":-0.00026599,"MEAN_MOTION_DOT":-9.0e-7,"MEAN_MOTION_DDOT":0},{"OBJECT_NAME":"ONEWEB-0688","OBJECT_ID":"2024-188C","EPOCH":"2025-08-13T13:35:11.479776","MEAN_MOTION":13.17648834,"ECCENTRICITY":0.0002696,"INCLINATION":87.9023,"RA_OF_ASC_NODE":67.1296,"ARG_OF_PERICENTER":111.763,"MEAN_ANOMALY":248.3789,"EPHEMERIS_TYPE":0,"CLASSIFICATION_TYPE":"U","NORAD_CAT_ID":61596,"ELEMENT_SET_NO":999,"REV_AT_EPOCH":4538,"BSTAR":2.3743e-5,"MEAN_MOTION_DOT":2.2e-7,"MEAN_MOTION_DDOT":0},{"OBJECT_NAME":"ONEWEB-0689","OBJECT_ID":"2024-188D","EPOCH":"2025-08-13T13:29:32.267328","MEAN_MOTION":13.11416278,"ECCENTRICITY":0.0001449,"INCLINATION":87.8759,"RA_OF_ASC_NODE":82.3745,"ARG_OF_PERICENTER":91.085,"MEAN_ANOMALY":269.0444,"EPHEMERIS_TYPE":0,"CLASSIFICATION_TYPE":"U","NORAD_CAT_ID":61597,"ELEMENT_SET_NO":999,"REV_AT_EPOCH":4413,"BSTAR":-0.0010375,"MEAN_MOTION_DOT":-3.55e-6,"MEAN_MOTION_DDOT":0},{"OBJECT_NAME":"ONEWEB-0690","OBJECT_ID":"2024-188E","EPOCH":"2025-08-13T13:44:11.427936","MEAN_MOTION":13.11417003,"ECCENTRICITY":0.0002287,"INCLINATION":87.8804,"RA_OF_ASC_NODE":82.34,"ARG_OF_PERICENTER":69.1217,"MEAN_ANOMALY":291.0156,"EPHEMERIS_TYPE":0,"CLASSIFICATION_TYPE":"U","NORAD_CAT_ID":61598,"ELEMENT_SET_NO":999,"REV_AT_EPOCH":4431,"BSTAR":-0.00018391,"MEAN_MOTION_DOT":-5.2e-7,"MEAN_MOTION_DDOT":0},{"OBJECT_NAME":"ONEWEB-0691","OBJECT_ID":"2024-188F","EPOCH":"2025-08-13T13:36:53.081856","MEAN_MOTION":13.11417478,"ECCENTRICITY":0.0002027,"INCLINATION":87.872,"RA_OF_ASC_NODE":82.3215,"ARG_OF_PERICENTER":91.8377,"MEAN_ANOMALY":268.2983,"EPHEMERIS_TYPE":0,"CLASSIFICATION_TYPE":"U","NORAD_CAT_ID":61599,"ELEMENT_SET_NO":999,"REV_AT_EPOCH":4416,"BSTAR":-0.00066721,"MEAN_MOTION_DOT":-2.24e-6,"MEAN_MOTION_DDOT":0},{"OBJECT_NAME":"ONEWEB-0692","OBJECT_ID":"2024-188G","EPOCH":"2025-08-13T14:06:10.469952","MEAN_MOTION":13.11419461,"ECCENTRICITY":0.0001013,"INCLINATION":87.8791,"RA_OF_ASC_NODE":82.4073,"ARG_OF_PERICENTER":54.2101,"MEAN_ANOMALY":305.912,"EPHEMERIS_TYPE":0,"CLASSIFICATION_TYPE":"U","NORAD_CAT_ID":61600,"ELEMENT_SET_NO":999,"REV_AT_EPOCH":4415,"BSTAR":0.0013793,"MEAN_MOTION_DOT":5.02e-6,"MEAN_MOTION_DDOT":0},{"OBJECT_NAME":"ONEWEB-0693","OBJECT_ID":"2024-188H","EPOCH":"2025-08-13T13:52:12.713952","MEAN_MOTION":13.17649917,"ECCENTRICITY":0.0002563,"INCLINATION":87.9026,"RA_OF_ASC_NODE":67.1448,"ARG_OF_PERICENTER":77.7106,"MEAN_ANOMALY":282.4312,"EPHEMERIS_TYPE":0,"CLASSIFICATION_TYPE":"U","NORAD_CAT_ID":61601,"ELEMENT_SET_NO":999,"REV_AT_EPOCH":4537,"BSTAR":-1.5735e-5,"MEAN_MOTION_DOT":7.0e-8,"MEAN_MOTION_DDOT":0},{"OBJECT_NAME":"ONEWEB-0695","OBJECT_ID":"2024-188J","EPOCH":"2025-08-13T13:31:55.786368","MEAN_MOTION":13.11421272,"ECCENTRICITY":0.0001114,"INCLINATION":87.8789,"RA_OF_ASC_NODE":82.3982,"ARG_OF_PERICENTER":85.4237,"MEAN_ANOMALY":274.7018,"EPHEMERIS_TYPE":0,"CLASSIFICATION_TYPE":"U","NORAD_CAT_ID":61602,"ELEMENT_SET_NO":999,"REV_AT_EPOCH":4414,"BSTAR":-0.0010427,"MEAN_MOTION_DOT":-3.57e-6,"MEAN_MOTION_DDOT":0},{"OBJECT_NAME":"ONEWEB-0697","OBJECT_ID":"2024-188K","EPOCH":"2025-08-13T14:18:23.551488","MEAN_MOTION":13.11417292,"ECCENTRICITY":0.0001152,"INCLINATION":87.878,"RA_OF_ASC_NODE":82.3843,"ARG_OF_PERICENTER":57.4,"MEAN_ANOMALY":302.7239,"EPHEMERIS_TYPE":0,"CLASSIFICATION_TYPE":"U","NORAD_CAT_ID":61603,"ELEMENT_SET_NO":999,"REV_AT_EPOCH":4413,"BSTAR":0.0014872,"MEAN_MOTION_DOT":5.4e-6,"MEAN_MOTION_DDOT":0},{"OBJECT_NAME":"ONEWEB-0698","OBJECT_ID":"2024-188L","EPOCH":"2025-08-12T01:08:54.367872","MEAN_MOTION":13.11673133,"ECCENTRICITY":9.08e-5,"INCLINATION":87.8787,"RA_OF_ASC_NODE":82.7071,"ARG_OF_PERICENTER":78.5442,"MEAN_ANOMALY":281.5788,"EPHEMERIS_TYPE":0,"CLASSIFICATION_TYPE":"U","NORAD_CAT_ID":61604,"ELEMENT_SET_NO":999,"REV_AT_EPOCH":4395,"BSTAR":0.093544,"MEAN_MOTION_DOT":0.0003341,"MEAN_MOTION_DDOT":0},{"OBJECT_NAME":"ONEWEB-0699","OBJECT_ID":"2024-188M","EPOCH":"2025-08-13T13:42:28.138464","MEAN_MOTION":13.10370656,"ECCENTRICITY":0.0001428,"INCLINATION":87.8783,"RA_OF_ASC_NODE":97.6079,"ARG_OF_PERICENTER":60.3951,"MEAN_ANOMALY":299.7319,"EPHEMERIS_TYPE":0,"CLASSIFICATION_TYPE":"U","NORAD_CAT_ID":61605,"ELEMENT_SET_NO":999,"REV_AT_EPOCH":4302,"BSTAR":0.00082364,"MEAN_MOTION_DOT":3.0e-6,"MEAN_MOTION_DDOT":0},{"OBJECT_NAME":"ONEWEB-0700","OBJECT_ID":"2024-188N","EPOCH":"2025-08-13T13:44:50.793504","MEAN_MOTION":13.10370181,"ECCENTRICITY":0.0001037,"INCLINATION":87.8743,"RA_OF_ASC_NODE":97.5009,"ARG_OF_PERICENTER":82.7682,"MEAN_ANOMALY":277.3563,"EPHEMERIS_TYPE":0,"CLASSIFICATION_TYPE":"U","NORAD_CAT_ID":61606,"ELEMENT_SET_NO":999,"REV_AT_EPOCH":4301,"BSTAR":0.00064927,"MEAN_MOTION_DOT":2.39e-6,"MEAN_MOTION_DDOT":0},{"OBJECT_NAME":"ONEWEB-0701","OBJECT_ID":"2024-188P","EPOCH":"2025-08-13T14:08:43.581120","MEAN_MOTION":13.10372107,"ECCENTRICITY":0.000123,"INCLINATION":87.8776,"RA_OF_ASC_NODE":97.6115,"ARG_OF_PERICENTER":50.7472,"MEAN_ANOMALY":309.3765,"EPHEMERIS_TYPE":0,"CLASSIFICATION_TYPE":"U","NORAD_CAT_ID":61607,"ELEMENT_SET_NO":999,"REV_AT_EPOCH":4302,"BSTAR":-0.0015426,"MEAN_MOTION_DOT":-5.26e-6,"MEAN_MOTION_DDOT":0},{"OBJECT_NAME":"ONEWEB-0702","OBJECT_ID":"2024-188Q","EPOCH":"2025-08-13T13:02:41.577792","MEAN_MOTION":13.11414255,"ECCENTRICITY":8.76e-5,"INCLINATION":87.8716,"RA_OF_ASC_NODE":82.3551,"ARG_OF_PERICENTER":65.6064,"MEAN_ANOMALY":294.5155,"EPHEMERIS_TYPE":0,"CLASSIFICATION_TYPE":"U","NORAD_CAT_ID":61608,"ELEMENT_SET_NO":999,"REV_AT_EPOCH":4416,"BSTAR":-0.001011,"MEAN_MOTION_DOT":-3.46e-6,"MEAN_MOTION_DDOT":0}]
