ONEWEB-0703             
1 56724U 23068Q   25225.53026437 -.00000015  00000+0 -74542-4 0  9992
2 56724  87.9067 320.5869 0002803  82.1461 277.9987 13.15546388108801
ONEWEB-0721             
1 56725U 23068R   25225.58239393  .00000031  00000+0  39678-4 0  9992
2 56725  86.6849 183.5546 0002022  80.9624 279.1737 13.22441879117281
ONEWEB-0015             
1 61594U 24188A   25225.60458961  .00000386  00000+0  10532-2 0  9992
2 61594  87.8803  82.4008 0002145  98.9066 261.2304 13.11415340 44147
ONEWEB-0687             
1 61595U 24188B   25225.53742088 -.00000090  00000+0 -26599-3 0  9996
2 61595  87.9021  67.1355 0001646 107.9724 252.1587 13.17648235 45389
ONEWEB-0688             
1 61596U 24188C   25225.56610509  .00000022  00000+0  23743-4 0  9994
2 61596  87.9023  67.1296 0002696 111.7630 248.3789 13.17648834 45387
ONEWEB-0689             
1 61597U 24188D   25225.56217902 -.00000355  00000+0 -10375-2 0  9991
2 61597  87.8759  82.3745 0001449  91.0850 269.0444 13.11416278 44139
ONEWEB-0690             
1 61598U 24188E   25225.57235449 -.00000052  00000+0 -18391-3 0  9990
2 61598  87.8804  82.3400 0002287  69.1217 291.0156 13.11417003 44315
ONEWEB-0691             
1 61599U 24188F   25225.56728104 -.00000224  00000+0 -66721-3 0  9996
2 61599  87.8720  82.3215 0002027  91.8377 268.2983 13.11417478 44161
ONEWEB-0692             
1 61600U 24188G   25225.58762118  .00000502  00000+0  13793-2 0  9991
2 61600  87.8791  82.4073 0001013  54.2101 305.9120 13.11419461 44152
ONEWEB-0693             
1 61601U 24188H   25225.57792493  .00000007  00000+0 -15735-4 0  9991
2 61601  87.9026  67.1448 0002563  77.7106 282.4312 13.17649917 45371
ONEWEB-0695             
1 61602U 24188J   25225.56384012 -.00000357  00000+0 -10427-2 0  9995
2 61602  87.8789  82.3982 0001114  85.4237 274.7018 13.11421272 44148
ONEWEB-0697             
1 61603U 24188K   25225.59610592  .00000540  00000+0  14872-2 0  9994
2 61603  87.8780  82.3843 0001152  57.4000 302.7239 13.11417292 44138
ONEWEB-0698             
1 61604U 24188L   25224.04785148  .00033410  00000+0  93544-1 0  9998
2 61604  87.8787  82.7071 0000908  78.5442 281.5788 13.11673133 43955
ONEWEB-0699             
1 61605U 24188M   25225.57115901  .00000300  00000+0  82364-3 0  9994
2 61605  87.8783  97.6079 0001428  60.3951 299.7319 13.10370656 43029
ONEWEB-0700             
1 61606U 24188N   25225.57281011  .00000239  00000+0  64927-3 0  9997
2 61606  87.8743  97.5009 0001037  82.7682 277.3563 13.10370181 43018
ONEWEB-0701             
1 61607U 24188P   25225.58939330 -.00000526  00000+0 -15426-2 0  9993
2 61607  87.8776  97.6115 0001230  50.7472 309.3765 13.10372107 43022
ONEWEB-0702             
1 61608U 24188Q   25225.54353678 -.00000346  00000+0 -10110-2 0  9990
2 61608  87.8716  82.3551 0000876  65.6064 294.5155 13.11414255 44165
